[{"OBJECT_NAME":"ISS (ZARYA)","OBJECT_ID":"1998-067A","EPOCH":"2026-03-30T08:36:35.879904","MEAN_MOTION":15.486529,"ECCENTRICITY":0.00062124,"INCLINATION":51.6343,"RA_OF_ASC_NODE":330.1789,"ARG_OF_PERICENTER":250.3608,"MEAN_ANOMALY":109.671,"EPHEMERIS_TYPE":0,"CLASSIFICATION_TYPE":"U","NORAD_CAT_ID":25544,"ELEMENT_SET_NO":999,"REV_AT_EPOCH":55953,"BSTAR":0.00022375818,"MEAN_MOTION_DOT":0.00011753,"MEAN_MOTION_DDOT":0},{"OBJECT_NAME":"POISK","OBJECT_ID":"2009-060A","EPOCH":"2026-03-30T08:36:35.879904","MEAN_MOTION":15.486529,"ECCENTRICITY":0.00062124,"INCLINATION":51.6343,"RA_OF_ASC_NODE":330.1789,"ARG_OF_PERICENTER":250.3608,"MEAN_ANOMALY":109.671,"EPHEMERIS_TYPE":0,"CLASSIFICATION_TYPE":"U","NORAD_CAT_ID":36086,"ELEMENT_SET_NO":999,"REV_AT_EPOCH":55903,"BSTAR":0.00022375818,"MEAN_MOTION_DOT":0.00011753,"MEAN_MOTION_DDOT":0},{"OBJECT_NAME":"CSS (TIANHE)","OBJECT_ID":"2021-035A","EPOCH":"2026-03-30T10:36:12.170592","MEAN_MOTION":15.6169561,"ECCENTRICITY":0.00037758,"INCLINATION":41.4666,"RA_OF_ASC_NODE":81.7909,"ARG_OF_PERICENTER":67.1765,"MEAN_ANOMALY":292.9473,"EPHEMERIS_TYPE":0,"CLASSIFICATION_TYPE":"U","NORAD_CAT_ID":48274,"ELEMENT_SET_NO":999,"REV_AT_EPOCH":28085,"BSTAR":0.00032197763,"MEAN_MOTION_DOT":0.00028355,"MEAN_MOTION_DDOT":0},{"OBJECT_NAME":"ISS (NAUKA)","OBJECT_ID":"2021-066A","EPOCH":"2026-03-30T08:36:35.879904","MEAN_MOTION":15.486529,"ECCENTRICITY":0.00062124,"INCLINATION":51.6343,"RA_OF_ASC_NODE":330.1789,"ARG_OF_PERICENTER":250.3608,"MEAN_ANOMALY":109.671,"EPHEMERIS_TYPE":0,"CLASSIFICATION_TYPE":"U","NORAD_CAT_ID":49044,"ELEMENT_SET_NO":999,"REV_AT_EPOCH":55907,"BSTAR":0.00022375818,"MEAN_MOTION_DOT":0.00011753,"MEAN_MOTION_DDOT":0},{"OBJECT_NAME":"FREGAT DEB","OBJECT_ID":"2011-037PF","EPOCH":"2026-03-30T09:22:42.087360","MEAN_MOTION":12.4078733,"ECCENTRICITY":0.0959969,"INCLINATION":51.6446,"RA_OF_ASC_NODE":238.5938,"ARG_OF_PERICENTER":106.8712,"MEAN_ANOMALY":263.9544,"EPHEMERIS_TYPE":0,"CLASSIFICATION_TYPE":"U","NORAD_CAT_ID":49271,"ELEMENT_SET_NO":999,"REV_AT_EPOCH":21526,"BSTAR":0.01673,"MEAN_MOTION_DOT":0.00011717,"MEAN_MOTION_DDOT":0},{"OBJECT_NAME":"CSS (WENTIAN)","OBJECT_ID":"2022-085A","EPOCH":"2026-03-30T10:36:12.170592","MEAN_MOTION":15.6169561,"ECCENTRICITY":0.00037758,"INCLINATION":41.4666,"RA_OF_ASC_NODE":81.7909,"ARG_OF_PERICENTER":67.1765,"MEAN_ANOMALY":292.9473,"EPHEMERIS_TYPE":0,"CLASSIFICATION_TYPE":"U","NORAD_CAT_ID":53239,"ELEMENT_SET_NO":999,"REV_AT_EPOCH":28083,"BSTAR":0.00032197763,"MEAN_MOTION_DOT":0.00028355,"MEAN_MOTION_DDOT":0},{"OBJECT_NAME":"CSS (MENGTIAN)","OBJECT_ID":"2022-143A","EPOCH":"2026-03-30T10:36:12.170592","MEAN_MOTION":15.6169561,"ECCENTRICITY":0.00037758,"INCLINATION":41.4666,"RA_OF_ASC_NODE":81.7909,"ARG_OF_PERICENTER":67.1765,"MEAN_ANOMALY":292.9473,"EPHEMERIS_TYPE":0,"CLASSIFICATION_TYPE":"U","NORAD_CAT_ID":54216,"ELEMENT_SET_NO":999,"REV_AT_EPOCH":28083,"BSTAR":0.00032197763,"MEAN_MOTION_DOT":0.00028355,"MEAN_MOTION_DDOT":0},{"OBJECT_NAME":"TIANZHOU-9","OBJECT_ID":"2025-149A","EPOCH":"2026-03-30T10:36:12.170592","MEAN_MOTION":15.6169561,"ECCENTRICITY":0.00037758,"INCLINATION":41.4666,"RA_OF_ASC_NODE":81.7909,"ARG_OF_PERICENTER":67.1765,"MEAN_ANOMALY":292.9473,"EPHEMERIS_TYPE":0,"CLASSIFICATION_TYPE":"U","NORAD_CAT_ID":64786,"ELEMENT_SET_NO":999,"REV_AT_EPOCH":28083,"BSTAR":0.00032197763,"MEAN_MOTION_DOT":0.00028355,"MEAN_MOTION_DDOT":0},{"OBJECT_NAME":"PROGRESS-MS 32","OBJECT_ID":"2025-204A","EPOCH":"2026-03-30T08:36:35.879904","MEAN_MOTION":15.486529,"ECCENTRICITY":0.00062124,"INCLINATION":51.6343,"RA_OF_ASC_NODE":330.1789,"ARG_OF_PERICENTER":250.3608,"MEAN_ANOMALY":109.671,"EPHEMERIS_TYPE":0,"CLASSIFICATION_TYPE":"U","NORAD_CAT_ID":65586,"ELEMENT_SET_NO":999,"REV_AT_EPOCH":55450,"BSTAR":0.00022375818,"MEAN_MOTION_DOT":0.00011753,"MEAN_MOTION_DDOT":0},{"OBJECT_NAME":"YOTSUBA-KULOVER","OBJECT_ID":"1998-067XN","EPOCH":"2026-03-30T14:58:31.989504","MEAN_MOTION":15.93064967,"ECCENTRICITY":0.00063734,"INCLINATION":51.6174,"RA_OF_ASC_NODE":307.8228,"ARG_OF_PERICENTER":229.5166,"MEAN_ANOMALY":130.5285,"EPHEMERIS_TYPE":0,"CLASSIFICATION_TYPE":"U","NORAD_CAT_ID":65941,"ELEMENT_SET_NO":999,"REV_AT_EPOCH":2682,"BSTAR":0.0012979374,"MEAN_MOTION_DOT":0.00464627,"MEAN_MOTION_DDOT":9.5668501e-5},{"OBJECT_NAME":"BOTAN","OBJECT_ID":"1998-067XQ","EPOCH":"2026-03-30T15:16:21.579168","MEAN_MOTION":15.92023245,"ECCENTRICITY":0.00066844,"INCLINATION":51.6205,"RA_OF_ASC_NODE":307.9316,"ARG_OF_PERICENTER":225.394,"MEAN_ANOMALY":134.6521,"EPHEMERIS_TYPE":0,"CLASSIFICATION_TYPE":"U","NORAD_CAT_ID":65943,"ELEMENT_SET_NO":999,"REV_AT_EPOCH":2682,"BSTAR":0.0012615822,"MEAN_MOTION_DOT":0.00427526,"MEAN_MOTION_DDOT":8.1287599e-5},{"OBJECT_NAME":"HRC MONOBLOCK CAMERA","OBJECT_ID":"1998-067XR","EPOCH":"2026-03-30T08:20:53.126304","MEAN_MOTION":15.64422568,"ECCENTRICITY":0.00037827,"INCLINATION":51.6279,"RA_OF_ASC_NODE":321.1028,"ARG_OF_PERICENTER":190.9242,"MEAN_ANOMALY":169.1671,"EPHEMERIS_TYPE":0,"CLASSIFICATION_TYPE":"U","NORAD_CAT_ID":66052,"ELEMENT_SET_NO":999,"REV_AT_EPOCH":2562,"BSTAR":0.00065583481,"MEAN_MOTION_DOT":0.00064191,"MEAN_MOTION_DDOT":0},{"OBJECT_NAME":"HTV-X1","OBJECT_ID":"2025-241A","EPOCH":"2026-03-30T04:36:32.172192","MEAN_MOTION":15.32482714,"ECCENTRICITY":0.00072372,"INCLINATION":51.6383,"RA_OF_ASC_NODE":334.262,"ARG_OF_PERICENTER":252.1007,"MEAN_ANOMALY":107.9185,"EPHEMERIS_TYPE":0,"CLASSIFICATION_TYPE":"U","NORAD_CAT_ID":66174,"ELEMENT_SET_NO":999,"REV_AT_EPOCH":2408,"BSTAR":0.00010143932,"MEAN_MOTION_DOT":2.86e-5,"MEAN_MOTION_DDOT":0},{"OBJECT_NAME":"SZ-21 MODULE","OBJECT_ID":"2025-246C","EPOCH":"2026-03-30T07:26:18.451392","MEAN_MOTION":15.70166693,"ECCENTRICITY":0.00020203,"INCLINATION":41.4738,"RA_OF_ASC_NODE":76.2734,"ARG_OF_PERICENTER":214.1142,"MEAN_ANOMALY":145.9571,"EPHEMERIS_TYPE":0,"CLASSIFICATION_TYPE":"U","NORAD_CAT_ID":66515,"ELEMENT_SET_NO":999,"REV_AT_EPOCH":2131,"BSTAR":0.00038893019,"MEAN_MOTION_DOT":0.00048483,"MEAN_MOTION_DDOT":0},{"OBJECT_NAME":"SHENZHOU-22","OBJECT_ID":"2025-272A","EPOCH":"2026-03-30T10:36:12.170592","MEAN_MOTION":15.6169561,"ECCENTRICITY":0.00037758,"INCLINATION":41.4666,"RA_OF_ASC_NODE":81.7909,"ARG_OF_PERICENTER":67.1765,"MEAN_ANOMALY":292.9473,"EPHEMERIS_TYPE":0,"CLASSIFICATION_TYPE":"U","NORAD_CAT_ID":66645,"ELEMENT_SET_NO":999,"REV_AT_EPOCH":28083,"BSTAR":0.00032197763,"MEAN_MOTION_DOT":0.00028355,"MEAN_MOTION_DDOT":0},{"OBJECT_NAME":"SOYUZ-MS 28","OBJECT_ID":"2025-275A","EPOCH":"2026-03-30T08:36:35.879904","MEAN_MOTION":15.486529,"ECCENTRICITY":0.00062124,"INCLINATION":51.6343,"RA_OF_ASC_NODE":330.1789,"ARG_OF_PERICENTER":250.3608,"MEAN_ANOMALY":109.671,"EPHEMERIS_TYPE":0,"CLASSIFICATION_TYPE":"U","NORAD_CAT_ID":66664,"ELEMENT_SET_NO":999,"REV_AT_EPOCH":55931,"BSTAR":0.00022375818,"MEAN_MOTION_DOT":0.00011753,"MEAN_MOTION_DDOT":0}]
