ISS (ZARYA)             
1 25544U 98067A   26089.35874861  .00011753  00000+0  22376-3 0  9996
2 25544  51.6343 330.1789 0006212 250.3608 109.6710 15.48652900559531
POISK                   
1 36086U 09060A   26089.35874861  .00011753  00000+0  22376-3 0  9994
2 36086  51.6343 330.1789 0006212 250.3608 109.6710 15.48652900559039
CSS (TIANHE)            
1 48274U 21035A   26089.44180753  .00028355  00000+0  32198-3 0  9991
2 48274  41.4666  81.7909 0003775  67.1765 292.9473 15.61695610280851
ISS (NAUKA)             
1 49044U 21066A   26089.35874861  .00011753  00000+0  22376-3 0  9992
2 49044  51.6343 330.1789 0006212 250.3608 109.6710 15.48652900559071
FREGAT DEB              
1 49271U 11037PF  26089.39076490  .00011717  00000+0  16730-1 0  9992
2 49271  51.6446 238.5938 0959969 106.8712 263.9544 12.40787330215265
CSS (WENTIAN)           
1 53239U 22085A   26089.44180753  .00028355  00000+0  32198-3 0  9994
2 53239  41.4666  81.7909 0003775  67.1765 292.9473 15.61695610280836
CSS (MENGTIAN)          
1 54216U 22143A   26089.44180753  .00028355  00000+0  32198-3 0  9995
2 54216  41.4666  81.7909 0003775  67.1765 292.9473 15.61695610280832
TIANZHOU-9              
1 64786U 25149A   26089.44180753  .00028355  00000+0  32198-3 0  9997
2 64786  41.4666  81.7909 0003775  67.1765 292.9473 15.61695610280835
PROGRESS-MS 32          
1 65586U 25204A   26089.35874861  .00011753  00000+0  22376-3 0  9999
2 65586  51.6343 330.1789 0006212 250.3608 109.6710 15.48652900554503
YOTSUBA-KULOVER         
1 65941U 98067XN  26089.62398136  .00464627  95669-4  12979-2 0  9996
2 65941  51.6174 307.8228 0006373 229.5166 130.5285 15.93064967 26823
BOTAN                   
1 65943U 98067XQ  26089.63636087  .00427526  81288-4  12616-2 0  9996
2 65943  51.6205 307.9316 0006684 225.3940 134.6521 15.92023245 26829
HRC MONOBLOCK CAMERA    
1 66052U 98067XR  26089.34783711  .00064191  00000+0  65583-3 0  9998
2 66052  51.6279 321.1028 0003782 190.9242 169.1671 15.64422568 25624
HTV-X1                  
1 66174U 25241A   26089.19203903  .00002860  00000+0  10144-3 0  9998
2 66174  51.6383 334.2620 0007237 252.1007 107.9185 15.32482714 24080
SZ-21 MODULE            
1 66515U 25246C   26089.30993578  .00048483  00000+0  38893-3 0  9991
2 66515  41.4738  76.2734 0002020 214.1142 145.9571 15.70166693 21313
SHENZHOU-22             
1 66645U 25272A   26089.44180753  .00028355  00000+0  32198-3 0  9990
2 66645  41.4666  81.7909 0003775  67.1765 292.9473 15.61695610280831
SOYUZ-MS 28             
1 66664U 25275A   26089.35874861  .00011753  00000+0  22376-3 0  9995
2 66664  51.6343 330.1789 0006212 250.3608 109.6710 15.48652900559315
